NORAD_CAT_ID,OBJECT_NAME,OBJECT_TYPE,EPOCH,MEAN_MOTION,ECCENTRICITY,INCLINATION,RA_OF_ASC_NODE,ARG_OF_PERICENTER,MEAN_ANOMALY,BSTAR,MEAN_MOTION_DOT,MEAN_MOTION_DDOT,TLE_LINE0,TLE_LINE1,TLE_LINE2,SEMIMAJOR_AXIS,PERIOD,APOGEE,PERIGEE,DECAYED
53782.0,STARLINK-4679,PAYLOAD,2023-06-02 06:15:10,15.08842199,9.95e-05,53.2153,134.678,90.6622,269.4484,6.5195e-05,7.5e-06,0.0,0 STARLINK-4679,1 53782U 22111K   23153.26053837  .00000750  00000-0  65195-4 0  9992,2 53782  53.2153 134.6780 0000995  90.6622 269.4484 15.08842199 40191,6917.874,95.437,540.427,539.05,0.0
53782.0,STARLINK-4679,PAYLOAD,2023-06-02 15:47:29,15.08839495,0.0001009,53.2155,132.894,93.1727,266.938,6.3469e-05,7.22e-06,0.0,0 STARLINK-4679,1 53782U 22111K   23153.65798040  .00000722  00000-0  63469-4 0  9998,2 53782  53.2155 132.8940 0001009  93.1727 266.9380 15.08839495 41061,6917.882,95.438,540.445,539.049,0.0
53782.0,STARLINK-4679,PAYLOAD,2023-06-03 02:55:11,15.08836095,0.0001032,53.2153,130.8118,94.6672,265.4438,4.489e-05,4.27e-06,0.0,0 STARLINK-4679,1 53782U 22111K   23154.12166372  .00000427  00000-0  44890-4 0  9997,2 53782  53.2153 130.8118 0001032  94.6672 265.4438 15.08836095 40324,6917.892,95.438,540.471,539.043,0.0
53782.0,STARLINK-4679,PAYLOAD,2023-06-03 06:05:57,15.08838468,0.0001045,53.2154,130.217,94.237,265.8742,5.1055e-05,5.25e-06,0.0,0 STARLINK-4679,1 53782U 22111K   23154.25414244  .00000525  00000-0  51055-4 0  9995,2 53782  53.2154 130.2170 0001045  94.2370 265.8742 15.08838468 41152,6917.885,95.438,540.473,539.027,0.0
53782.0,STARLINK-4679,PAYLOAD,2023-06-03 21:59:49,15.08839163,0.0001076,53.2157,127.2433,93.9676,266.1439,1.8665e-05,9e-08,0.0,0 STARLINK-4679,1 53782U 22111K   23154.91654322  .00000009  00000-0  18665-4 0  9998,2 53782  53.2157 127.2433 0001076  93.9676 266.1439 15.08839163 41253,6917.883,95.438,540.492,539.004,0.0
53782.0,STARLINK-4679,PAYLOAD,2023-06-04 04:21:21,15.08842686,0.0001068,53.2157,126.0539,94.0775,266.0339,2.7222e-05,1.46e-06,0.0,0 STARLINK-4679,1 53782U 22111K   23155.18150046  .00000146  00000-0  27222-4 0  9993,2 53782  53.2157 126.0539 0001068  94.0775 266.0339 15.08842686 40486,6917.872,95.437,540.476,538.998,0.0
53782.0,STARLINK-4679,PAYLOAD,2023-06-04 21:50:36,15.08836235,0.000106,53.2154,122.7829,93.3443,266.7671,3.087e-05,2.04e-06,0.0,0 STARLINK-4679,1 53782U 22111K   23155.91014420  .00000204  00000-0  30870-4 0  9997,2 53782  53.2154 122.7829 0001060  93.3443 266.7671 15.08836235 41406,6917.892,95.438,540.49,539.024,0.0
53782.0,STARLINK-4679,PAYLOAD,2023-06-05 07:22:55,15.08840589,0.0001082,53.2156,120.9984,94.5914,265.5202,4.9557e-05,5.01e-06,0.0,0 STARLINK-4679,1 53782U 22111K   23156.30758115  .00000501  00000-0  49557-4 0  9999,2 53782  53.2156 120.9984 0001082  94.5914 265.5202 15.08840589 40650,6917.879,95.438,540.492,538.995,0.0
53782.0,STARLINK-4679,PAYLOAD,2023-06-06 04:02:55,15.08842562,0.0001125,53.2154,117.1319,97.8677,262.2443,4.912e-05,4.94e-06,0.0,0 STARLINK-4679,1 53782U 22111K   23157.16870006  .00000494  00000-0  49120-4 0  9995,2 53782  53.2154 117.1319 0001125  97.8677 262.2443 15.08842562 41596,6917.873,95.437,540.516,538.959,0.0
53782.0,STARLINK-4679,PAYLOAD,2023-06-06 23:07:33,15.08835938,0.0001135,53.2159,113.5633,94.4666,265.6456,2.9187e-05,1.77e-06,0.0,0 STARLINK-4679,1 53782U 22111K   23157.96358563  .00000177  00000-0  29187-4 0  9991,2 53782  53.2159 113.5633 0001135  94.4666 265.6456 15.08835938 40906,6917.893,95.438,540.543,538.973,0.0
53782.0,STARLINK-4679,PAYLOAD,2023-06-07 02:18:20,15.08836825,0.0001119,53.2159,112.9686,94.1072,266.0048,3.6329e-05,2.9e-06,0.0,0 STARLINK-4679,1 53782U 22111K   23158.09606512  .00000290  00000-0  36329-4 0  9998,2 53782  53.2159 112.9686 0001119  94.1072 266.0048 15.08836825 41737,6917.89,95.438,540.529,538.981,0.0
53782.0,STARLINK-4679,PAYLOAD,2023-06-07 19:47:34,15.08833574,0.0001107,53.2157,109.6974,92.4949,267.617,-8.813e-06,-4.28e-06,0.0,0 STARLINK-4679,1 53782U 22111K   23158.82471061 -.00000428  00000-0 -88130-5 0  9991,2 53782  53.2157 109.6974 0001107  92.4949 267.6170 15.08833574 41842,6917.9,95.438,540.531,538.999,0.0
53782.0,STARLINK-4679,PAYLOAD,2023-06-08 00:33:44,15.08834148,0.0001089,53.216,108.8058,91.8576,268.254,-2.6238e-05,-7.05e-06,0.0,0 STARLINK-4679,1 53782U 22111K   23159.02343141 -.00000705  00000-0 -26238-4 0  9999,2 53782  53.2160 108.8058 0001089  91.8576 268.2540 15.08834148 41068,6917.898,95.438,540.517,539.01,0.0
53782.0,STARLINK-4679,PAYLOAD,2023-06-08 06:55:16,15.08835501,0.0001014,53.216,107.6171,88.6105,271.5003,-1.7778e-05,-5.71e-06,0.0,0 STARLINK-4679,1 53782U 22111K   23159.28839120 -.00000571  00000-0 -17778-4 0  9994,2 53782  53.2160 107.6171 0001014  88.6105 271.5003 15.08835501 41910,6917.894,95.438,540.461,539.058,0.0
53782.0,STARLINK-4679,PAYLOAD,2023-06-08 22:49:08,15.08838223,9.73e-05,53.2164,104.6433,85.8416,274.2687,6.5829e-05,7.6e-06,0.0,0 STARLINK-4679,1 53782U 22111K   23159.95078815  .00000760  00000-0  65829-4 0  9992,2 53782  53.2164 104.6433 0000973  85.8416 274.2687 15.08838223 41203,6917.886,95.438,540.424,539.078,0.0
53782.0,STARLINK-4679,PAYLOAD,2023-06-09 13:07:36,15.08838428,9.52e-05,53.2166,101.967,83.0168,277.0932,9.0087e-05,1.146e-05,0.0,0 STARLINK-4679,1 53782U 22111K   23160.54694762  .00001146  00000-0  90087-4 0  9997,2 53782  53.2166 101.9670 0000952  83.0168 277.0932 15.08838428 42100,6917.885,95.438,540.409,539.092,0.0
53782.0,STARLINK-4679,PAYLOAD,2023-06-09 22:39:55,15.08831695,9.92e-05,53.2169,100.1831,83.9807,276.1298,3.0669e-05,2e-06,0.0,0 STARLINK-4679,1 53782U 22111K   23160.94439504  .00000200  00000-0  30669-4 0  9992,2 53782  53.2169 100.1831 0000992  83.9807 276.1298 15.08831695 41356,6917.906,95.438,540.457,539.085,0.0
53782.0,STARLINK-4679,PAYLOAD,2023-06-10 03:26:04,15.08837782,0.0001048,53.2167,99.2907,89.8394,270.2718,7.6657e-05,9.32e-06,0.0,0 STARLINK-4679,1 53782U 22111K   23161.14311064  .00000932  00000-0  76657-4 0  9994,2 53782  53.2167  99.2907 0001048  89.8394 270.2718 15.08837782 41383,6917.887,95.438,540.477,539.027,0.0
53782.0,STARLINK-4679,PAYLOAD,2023-06-10 19:19:56,15.08839046,0.0001068,53.2166,96.3171,90.7663,269.3451,-4.5001e-05,-1.004e-05,0.0,0 STARLINK-4679,1 53782U 22111K   23161.80551592 -.00001004  00000-0 -45001-4 0  9991,2 53782  53.2166  96.3171 0001068  90.7663 269.3451 15.08839046 42294,6917.883,95.438,540.487,539.009,0.0
53782.0,STARLINK-4679,PAYLOAD,2023-06-11 12:49:10,15.08843044,0.0001089,53.2172,93.0467,87.2862,272.8255,4.6498e-05,4.52e-06,0.0,0 STARLINK-4679,1 53782U 22111K   23162.53415037  .00000452  00000-0  46498-4 0  9990,2 53782  53.2172  93.0467 0001089  87.2862 272.8255 15.08843044 42405,6917.871,95.437,540.489,538.983,0.0
53782.0,STARLINK-4679,PAYLOAD,2023-06-11 19:10:43,15.088416,9.48e-05,53.2173,91.8573,88.1793,271.9307,7.437e-05,8.96e-06,0.0,0 STARLINK-4679,1 53782U 22111K   23162.79910966  .00000896  00000-0  74370-4 0  9991,2 53782  53.2173  91.8573 0000948  88.1793 271.9307 15.08841600 42444,6917.875,95.437,540.396,539.085,0.0
53782.0,STARLINK-4679,PAYLOAD,2023-06-12 01:32:16,15.08795321,6.54e-05,53.2167,90.6677,136.4843,223.6201,0.00088185,0.00013758,0.0,0 STARLINK-4679,1 53782U 22111K   23163.06408112  .00013758  00000-0  88185-3 0  9996,2 53782  53.2167  90.6677 0000654 136.4843 223.6201 15.08795321 41675,6918.017,95.44,540.334,539.43,0.0
53782.0,STARLINK-4679,PAYLOAD,2023-06-12 12:39:57,15.08837934,0.0001088,53.2166,88.5865,89.3399,270.7718,5.8387e-05,6.42e-06,0.0,0 STARLINK-4679,1 53782U 22111K   23163.52775248  .00000642  00000-0  58387-4 0  9994,2 53782  53.2166  88.5865 0001088  89.3399 270.7718 15.08837934 42554,6917.887,95.438,540.504,538.999,0.0
53782.0,STARLINK-4679,PAYLOAD,2023-06-13 04:33:49,15.08836288,0.0001111,53.2165,85.6127,89.563,270.5489,3.2368e-05,2.27e-06,0.0,0 STARLINK-4679,1 53782U 22111K   23164.19015528  .00000227  00000-0  32368-4 0  9996,2 53782  53.2165  85.6127 0001111  89.5630 270.5489 15.08836288 42654,6917.892,95.438,540.525,538.988,0.0
53782.0,STARLINK-4679,PAYLOAD,2023-06-14 01:13:50,15.0883839,9.26e-05,53.2163,81.7474,86.3319,273.7779,-1.5465e-05,-5.34e-06,0.0,0 STARLINK-4679,1 53782U 22111K   23165.05127523 -.00000534  00000-0 -15465-4 0  9993,2 53782  53.2163  81.7474 0000926  86.3319 273.7779 15.08838390 41973,6917.885,95.438,540.391,539.11,0.0
53782.0,STARLINK-4679,PAYLOAD,2023-06-14 04:24:36,15.08844959,9.85e-05,53.217,81.1512,90.3798,269.7307,-5.405e-06,-3.74e-06,0.0,0 STARLINK-4679,1 53782U 22111K   23165.18375078 -.00000374  00000-0 -54050-5 0  9993,2 53782  53.2170  81.1512 0000985  90.3798 269.7307 15.08844959 42802,6917.865,95.437,540.412,539.049,0.0
53782.0,STARLINK-4679,PAYLOAD,2023-06-14 18:43:05,15.08831873,0.0001124,53.2176,78.4748,94.1599,265.9521,3.854e-05,3.25e-06,0.0,0 STARLINK-4679,1 53782U 22111K   23165.77991946  .00000325  00000-0  38540-4 0  9995,2 53782  53.2176  78.4748 0001124  94.1599 265.9521 15.08831873 42891,6917.905,95.438,540.548,538.993,0.0
53782.0,STARLINK-4679,PAYLOAD,2023-06-14 21:53:51,15.08832647,9.86e-05,53.2175,77.8799,106.2328,253.8773,3.8681e-05,3.28e-06,0.0,0 STARLINK-4679,1 53782U 22111K   23165.91239906  .00000328  00000-0  38681-4 0  9991,2 53782  53.2175  77.8799 0000986 106.2328 253.8773 15.08832647 42917,6917.903,95.438,540.45,539.086,0.0
53782.0,STARLINK-4679,PAYLOAD,2023-06-15 18:33:51,15.08841692,8.42e-05,53.217,74.0147,92.598,267.5108,1.0726e-05,-1.17e-06,0.0,0 STARLINK-4679,1 53782U 22111K   23166.77351769 -.00000117  00000-0  10726-4 0  9995,2 53782  53.2170  74.0147 0000842  92.5980 267.5108 15.08841692 42239,6917.875,95.437,540.323,539.158,0.0
53782.0,STARLINK-4679,PAYLOAD,2023-06-16 10:27:42,15.088468,8.84e-05,53.2172,71.0413,89.0801,271.0292,7.2563e-05,8.68e-06,0.0,0 STARLINK-4679,1 53782U 22111K   23167.43591136  .00000868  00000-0  72563-4 0  9992,2 53782  53.2172  71.0413 0000884  89.0801 271.0292 15.08846800 43144,6917.86,95.437,540.336,539.113,0.0
